NORAD_CAT_ID,OBJECT_NAME,OBJECT_TYPE,EPOCH,MEAN_MOTION,ECCENTRICITY,INCLINATION,RA_OF_ASC_NODE,ARG_OF_PERICENTER,MEAN_ANOMALY,BSTAR,MEAN_MOTION_DOT,MEAN_MOTION_DDOT,TLE_LINE0,TLE_LINE1,TLE_LINE2,SEMIMAJOR_AXIS,PERIOD,APOGEE,PERIGEE,DECAYED
55405.0,STARLINK-5623,PAYLOAD,2023-07-08 18:03:10,15.51223071,0.0003675,69.9978,6.0394,270.6191,89.4574,1.3081e-06,-8.8e-07,0.0,0 STARLINK-5623,1 55405U 23014Q   23189.75220554 -.00000088  00000-0  13081-5 0  9997,2 55405  69.9978   6.0394 0003675 270.6191  89.4574 15.51223071 24996,6791.291,92.83,415.652,410.66,0.0
55405.0,STARLINK-5623,PAYLOAD,2023-07-09 18:48:53,15.5122251,0.0003709,69.9987,3.2188,272.8487,87.2274,1.4304e-05,6.75e-06,0.0,0 STARLINK-5623,1 55405U 23014Q   23190.78395518  .00000675  00000-0  14304-4 0  9994,2 55405  69.9987   3.2188 0003709 272.8487  87.2274 15.51222510 25155,6791.293,92.83,415.676,410.639,0.0
55405.0,STARLINK-5623,PAYLOAD,2023-07-10 18:01:44,15.51247807,0.000375,69.9986,0.574,267.3204,92.7553,-6.0679e-05,-3.731e-05,0.0,0 STARLINK-5623,1 55405U 23014Q   23191.75121082 -.00003731  00000-0 -60679-4 0  9999,2 55405  69.9986   0.5740 0003750 267.3204  92.7553 15.51247807 25304,6791.219,92.828,415.63,410.537,0.0
55405.0,STARLINK-5623,PAYLOAD,2023-07-10 21:07:28,15.51223684,0.000373,69.9971,0.2193,268.2048,91.8711,2.1178e-05,1.079e-05,0.0,0 STARLINK-5623,1 55405U 23014Q   23191.88018777  .00001079  00000-0  21178-4 0  9991,2 55405  69.9971   0.2193 0003730 268.2048  91.8711 15.51223684 25326,6791.289,92.83,415.687,410.621,0.0
55405.0,STARLINK-5623,PAYLOAD,2023-07-11 04:51:49,15.5117856,0.0002559,69.9994,359.3403,284.3652,75.725,-2.8397e-05,-1.829e-05,0.0,0 STARLINK-5623,1 55405U 23014Q   23192.20265293 -.00001829  00000-0 -28397-4 0  9990,2 55405  69.9994 359.3403 0002559 284.3652  75.7250 15.51178560 25377,6791.421,92.833,415.024,411.548,0.0
55405.0,STARLINK-5623,PAYLOAD,2023-07-11 17:15:24,15.50669035,0.0007888,69.9984,357.9308,269.6494,90.3788,-0.0011718,-0.00067162,0.0,0 STARLINK-5623,1 55405U 23014Q   23192.71903875 -.00067162  00000-0 -11718-2 0  9990,2 55405  69.9984 357.9308 0007888 269.6494  90.3788 15.50669035 25453,6792.909,92.863,420.132,409.415,0.0
55405.0,STARLINK-5623,PAYLOAD,2023-07-12 06:00:00,15.48924144,0.0003468,70.0004,356.4807,269.3514,173.3971,-0.016924,-0.00838208,0.0,0 STARLINK-5623,1 55405U 23014Q   23193.25001157 -.00838208  00000-0 -16924-1 0  9992,2 55405  70.0004 356.4807 0003468 269.3514 173.3971 15.48924144 25534,6798.009,92.968,422.232,417.517,0.0
55405.0,STARLINK-5623,PAYLOAD,2023-07-12 14:00:01,15.48335392,0.0003463,70.0005,355.5728,271.094,229.5102,-0.019874,-0.00965954,0.0,0 STARLINK-5623,1 55405U 23014Q   23193.58335648 -.00965954  00000-0 -19874-1 0  9999,2 55405  70.0005 355.5728 0003463 271.0940 229.5102 15.48335392 25581,6799.732,93.003,423.952,419.243,0.0
55405.0,STARLINK-5623,PAYLOAD,2023-07-13 18:00:00,15.45996611,0.0003315,70.0002,352.4026,275.9742,240.7429,-0.019193,-0.00856593,0.0,0 STARLINK-5623,1 55405U 23014Q   23194.75001157 -.00856593  00000-0 -19193-1 0  9996,2 55405  70.0002 352.4026 0003315 275.9742 240.7429 15.45996611 25776,6806.588,93.144,430.71,426.197,0.0
55405.0,STARLINK-5623,PAYLOAD,2023-07-14 04:00:01,15.45191074,0.0003335,70.0001,351.2725,269.7245,44.7902,-0.020245,-0.00888664,0.0,0 STARLINK-5623,1 55405U 23014Q   23195.16668981 -.00888664  00000-0 -20245-1 0  9990,2 55405  70.0001 351.2725 0003335 269.7245  44.7902 15.45191074 25834,6808.954,93.192,433.089,428.548,0.0
55405.0,STARLINK-5623,PAYLOAD,2023-07-14 22:00:00,15.43752995,0.0003182,70.0002,349.2426,273.9893,249.2918,-0.022195,-0.00924495,0.0,0 STARLINK-5623,1 55405U 23014Q   23195.91667824 -.00924495  00000-0 -22195-1 0  9997,2 55405  70.0002 349.2426 0003182 273.9893 249.2918 15.43752995 25951,6813.182,93.279,437.215,432.879,0.0
55405.0,STARLINK-5623,PAYLOAD,2023-07-15 22:00:00,15.41800021,0.0003278,70.0002,346.5431,272.8358,42.742,-0.023922,-0.0093228,0.0,0 STARLINK-5623,1 55405U 23014Q   23196.91667824 -.00932280  00000-0 -23922-1 0  9998,2 55405  70.0002 346.5431 0003278 272.8358  42.7420 15.41800021 26101,6818.934,93.397,443.034,438.564,0.0
55405.0,STARLINK-5623,PAYLOAD,2023-07-17 02:00:01,15.39502188,0.000318,70.0004,343.4043,270.8213,33.5478,-0.02552,-0.00922281,0.0,0 STARLINK-5623,1 55405U 23014Q   23198.08334491 -.00922281  00000-0 -25520-1 0  9995,2 55405  70.0004 343.4043 0003180 270.8213  33.5478 15.39502188 26288,6825.717,93.537,449.753,445.412,0.0
55405.0,STARLINK-5623,PAYLOAD,2023-07-18 06:00:00,15.371959,0.0003295,70.0008,340.276,266.8663,16.7038,-0.025578,-0.00862116,0.0,0 STARLINK-5623,1 55405U 23014Q   23199.25001157 -.00862116  00000-0 -25578-1 0  9998,2 55405  70.0008 340.2760 0003295 266.8663  16.7038 15.37195900 26467,6832.543,93.677,456.659,452.157,0.0
55405.0,STARLINK-5623,PAYLOAD,2023-07-18 22:00:00,15.35936224,0.000339,70.0008,338.4933,275.0019,95.2253,-0.029459,-0.00945766,0.0,0 STARLINK-5623,1 55405U 23014Q   23199.91667824 -.00945766  00000-0 -29459-1 0  9995,2 55405  70.0008 338.4933 0003390 275.0019  95.2253 15.35936224 26563,6836.278,93.754,460.461,455.826,0.0
55405.0,STARLINK-5623,PAYLOAD,2023-07-19 14:00:01,15.34608131,0.0003301,70.0012,336.7142,272.5401,181.2395,-0.029762,-0.00918052,0.0,0 STARLINK-5623,1 55405U 23014Q   23200.58334491 -.00918052  00000-0 -29762-1 0  9997,2 55405  70.0012 336.7142 0003301 272.5401 181.2395 15.34608131 26666,6840.222,93.835,464.345,459.829,0.0
55405.0,STARLINK-5623,PAYLOAD,2023-07-21 14:00:01,15.30686498,0.000336,70.001,331.3982,271.7388,53.8867,-0.03312,-0.00904011,0.0,0 STARLINK-5623,1 55405U 23014Q   23202.58334491 -.00904011  00000-0 -33120-1 0  9992,2 55405  70.0010 331.3982 0003360 271.7388  53.8867 15.30686498 26977,6851.9,94.075,476.067,471.463,0.0
55405.0,STARLINK-5623,PAYLOAD,2023-07-24 14:00:01,15.24812681,0.0003405,70.0006,323.4831,270.5084,350.0795,-0.039433,-0.00910739,0.0,0 STARLINK-5623,1 55405U 23014Q   23205.58334491 -.00910739  00000-0 -39433-1 0  9992,2 55405  70.0006 323.4831 0003405 270.5084 350.0795 15.24812681  2320,6869.485,94.438,493.689,489.011,0.0
55405.0,STARLINK-5623,PAYLOAD,2023-07-25 14:00:01,15.22859313,0.000355,70.0003,320.8599,272.6903,72.198,-0.042029,-0.00915383,0.0,0 STARLINK-5623,1 55405U 23014Q   23206.58335648 -.00915383  00000-0 -42029-1 0  9993,2 55405  70.0003 320.8599 0003550 272.6903  72.1980 15.22859313  2478,6875.358,94.559,499.664,494.782,0.0
55405.0,STARLINK-5623,PAYLOAD,2023-07-26 14:00:01,15.20901186,0.0003498,70.0002,318.2446,273.9323,148.0912,-0.044395,-0.00912797,0.0,0 STARLINK-5623,1 55405U 23014Q   23207.58334491 -.00912797  00000-0 -44395-1 0  9993,2 55405  70.0002 318.2446 0003498 273.9323 148.0912 15.20901186  2629,6881.258,94.681,505.53,500.716,0.0
55405.0,STARLINK-5623,PAYLOAD,2023-07-27 00:00:00,15.20094743,0.0003336,69.9999,317.1572,272.2804,269.8251,-0.046032,-0.00923508,0.0,0 STARLINK-5623,1 55405U 23014Q   23208.00001157 -.00923508  00000-0 -46032-1 0  9993,2 55405  69.9999 317.1572 0003336 272.2804 269.8251 15.20094743  2693,6883.692,94.731,507.853,503.26,0.0
55405.0,STARLINK-5623,PAYLOAD,2023-07-27 14:00:01,15.18939626,0.0003388,70.0001,315.6375,273.778,218.405,-0.046546,-0.00904388,0.0,0 STARLINK-5623,1 55405U 23014Q   23208.58334491 -.00904388  00000-0 -46546-1 0  9991,2 55405  70.0001 315.6375 0003388 273.7780 218.4050 15.18939626 27891,6887.181,94.803,511.379,506.713,0.0
55405.0,STARLINK-5623,PAYLOAD,2023-07-27 22:00:00,15.18325475,0.0003292,69.9998,314.7702,273.9065,240.0819,-0.050703,-0.00963017,0.0,0 STARLINK-5623,1 55405U 23014Q   23208.91667824 -.00963017  00000-0 -50703-1 0  9991,2 55405  69.9998 314.7702 0003292 273.9065 240.0819 15.18325475  2831,6889.038,94.841,513.171,508.635,0.0
55405.0,STARLINK-5623,PAYLOAD,2023-07-28 14:00:01,15.16977829,0.0003334,70.0002,313.0383,272.3663,282.9357,-0.048699,-0.00894843,0.0,0 STARLINK-5623,1 55405U 23014Q   23209.58334491 -.00894843  00000-0 -48699-1 0  9997,2 55405  70.0002 313.0383 0003334 272.3663 282.9357 15.16977829 28048,6893.118,94.926,517.281,512.684,0.0
55405.0,STARLINK-5623,PAYLOAD,2023-07-29 06:00:00,15.15709024,0.0003327,70.0002,311.3099,266.0748,327.3746,-0.052872,-0.00933827,0.0,0 STARLINK-5623,1 55405U 23014Q   23210.25001157 -.00933827  00000-0 -52872-1 0  9997,2 55405  70.0002 311.3099 0003327 266.0748 327.3746 15.15709024 28145,6896.964,95.005,521.123,516.534,0.0
55405.0,STARLINK-5623,PAYLOAD,2023-07-30 06:00:02,15.13753328,0.0003385,70.0004,308.7238,265.6386,19.2574,-0.056012,-0.00935783,0.0,0 STARLINK-5623,1 55405U 23014Q   23211.25002315 -.00935783  00000-0 -56012-1 0  9998,2 55405  70.0004 308.7238 0003385 265.6386  19.2574 15.13753328 28295,6902.903,95.128,527.105,522.431,0.0
55405.0,STARLINK-5623,PAYLOAD,2023-07-31 14:00:01,15.11106243,0.0003457,70.0005,305.2879,271.6881,70.7218,-0.057009,-0.00888022,0.0,0 STARLINK-5623,1 55405U 23014Q   23212.58334491 -.00888022  00000-0 -57009-1 0  9998,2 55405  70.0005 305.2879 0003457 271.6881  70.7218 15.11106243 28491,6910.962,95.294,535.216,530.438,0.0
55405.0,STARLINK-5623,PAYLOAD,2023-08-01 06:00:00,15.09843312,0.0003433,70.0005,303.5751,266.5112,99.966,-0.062936,-0.00942268,0.0,0 STARLINK-5623,1 55405U 23014Q   23213.25001157 -.00942268  00000-0 -62936-1 0  9991,2 55405  70.0005 303.5751 0003433 266.5112  99.9660 15.09843312 28592,6914.815,95.374,539.054,534.307,0.0
55405.0,STARLINK-5623,PAYLOAD,2023-08-02 14:00:01,15.07192536,0.0003403,70.0,300.1598,275.6372,129.6424,-0.063346,-0.00886173,0.0,0 STARLINK-5623,1 55405U 23014Q   23214.58334491 -.00886173  00000-0 -63346-1 0  9996,2 55405  70.0000 300.1598 0003403 275.6372 129.6424 15.07192536 28799,6922.921,95.542,547.141,542.43,0.0
55405.0,STARLINK-5623,PAYLOAD,2023-08-03 06:00:00,15.05936438,0.0003297,69.9998,298.4572,268.7746,151.1842,-0.07105,-0.00954948,0.0,0 STARLINK-5623,1 55405U 23014Q   23215.25001157 -.00954948  00000-0 -71050-1 0  9998,2 55405  69.9998 298.4572 0003297 268.7746 151.1842 15.05936438 28892,6926.77,95.622,550.918,546.351,0.0
